[{"OBJECT_NAME":"PRAETORIAN SDA_605","OBJECT_ID":"2025-203D","EPOCH":"2026-03-09T14:13:24.756960","MEAN_MOTION":13.83528896,"ECCENTRICITY":0.000955,"INCLINATION":81.2983,"RA_OF_ASC_NODE":102.8978,"ARG_OF_PERICENTER":98.6469,"MEAN_ANOMALY":261.5769,"EPHEMERIS_TYPE":0,"CLASSIFICATION_TYPE":"U","NORAD_CAT_ID":65568,"ELEMENT_SET_NO":999,"REV_AT_EPOCH":2492,"BSTAR":5.2426e-5,"MEAN_MOTION_DOT":7.0e-7,"MEAN_MOTION_DDOT":0},{"OBJECT_NAME":"COSMOS 967","OBJECT_ID":"1977-116A","EPOCH":"2026-03-09T22:58:52.777056","MEAN_MOTION":13.75073969,"ECCENTRICITY":0.00299291,"INCLINATION":65.8379,"RA_OF_ASC_NODE":350.1458,"ARG_OF_PERICENTER":282.0005,"MEAN_ANOMALY":150.9415,"EPHEMERIS_TYPE":0,"CLASSIFICATION_TYPE":"U","NORAD_CAT_ID":10512,"ELEMENT_SET_NO":999,"REV_AT_EPOCH":42172,"BSTAR":1.8476405e-5,"MEAN_MOTION_DOT":-6.3e-7,"MEAN_MOTION_DDOT":0}]
